{
 "generated_at": "2026-07-07T08:23:21Z",
 "sources": [
  {
   "name": "CelesTrak",
   "url": "https://celestrak.org/NORAD/elements/",
   "license": "frei verfügbar; Attribution. Ursprünglich USSPACECOM/Space-Track."
  },
  {
   "name": "GCAT (J. McDowell, planet4589.org)",
   "url": "https://planet4589.org/space/gcat/",
   "license": "CC-BY 4.0"
  }
 ],
 "satellites": [
  {
   "norad": 60541,
   "name": "UMBRA-09",
   "intl": "2024-149CB",
   "group": "sar",
   "gcat": {
    "class": "B",
    "category": "IMG-R",
    "owner": "UMBRA",
    "state": "US"
   },
   "omm": {
    "OBJECT_NAME": "UMBRA-09",
    "OBJECT_ID": "2024-149CB",
    "EPOCH": "2026-07-06T16:57:40.722912",
    "MEAN_MOTION": 15.18680231,
    "ECCENTRICITY": 0.0001628,
    "INCLINATION": 97.6968,
    "RA_OF_ASC_NODE": 275.2535,
    "ARG_OF_PERICENTER": 221.182,
    "MEAN_ANOMALY": 138.9291,
    "EPHEMERIS_TYPE": 0,
    "CLASSIFICATION_TYPE": "U",
    "NORAD_CAT_ID": 60541,
    "ELEMENT_SET_NO": 999,
    "REV_AT_EPOCH": 10368,
    "BSTAR": 0.00058657,
    "MEAN_MOTION_DOT": 0.00012102,
    "MEAN_MOTION_DDOT": 0
   }
  },
  {
   "norad": 60547,
   "name": "UMBRA-10",
   "intl": "2024-149CH",
   "group": "sar",
   "gcat": {
    "class": "B",
    "category": "IMG-R",
    "owner": "UMBRA",
    "state": "US"
   },
   "omm": {
    "OBJECT_NAME": "UMBRA-10",
    "OBJECT_ID": "2024-149CH",
    "EPOCH": "2026-07-06T16:57:02.604096",
    "MEAN_MOTION": 15.18677299,
    "ECCENTRICITY": 0.0001073,
    "INCLINATION": 97.6973,
    "RA_OF_ASC_NODE": 275.2828,
    "ARG_OF_PERICENTER": 174.0706,
    "MEAN_ANOMALY": 186.054,
    "EPHEMERIS_TYPE": 0,
    "CLASSIFICATION_TYPE": "U",
    "NORAD_CAT_ID": 60547,
    "ELEMENT_SET_NO": 999,
    "REV_AT_EPOCH": 10369,
    "BSTAR": 0.00062367,
    "MEAN_MOTION_DOT": 0.00012872,
    "MEAN_MOTION_DDOT": 0
   }
  },
  {
   "norad": 66748,
   "name": "UMBRA-11",
   "intl": "2025-276CL",
   "group": "sar",
   "gcat": {
    "class": "B",
    "category": "IMG-R",
    "owner": "UMBRA",
    "state": "US"
   },
   "omm": {
    "OBJECT_NAME": "UMBRA-11",
    "OBJECT_ID": "2025-276CL",
    "EPOCH": "2026-07-06T17:13:38.192160",
    "MEAN_MOTION": 15.27537312,
    "ECCENTRICITY": 0.0001855,
    "INCLINATION": 97.4185,
    "RA_OF_ASC_NODE": 262.2363,
    "ARG_OF_PERICENTER": 211.0304,
    "MEAN_ANOMALY": 149.0826,
    "EPHEMERIS_TYPE": 0,
    "CLASSIFICATION_TYPE": "U",
    "NORAD_CAT_ID": 66748,
    "ELEMENT_SET_NO": 999,
    "REV_AT_EPOCH": 3347,
    "BSTAR": 0.00056939,
    "MEAN_MOTION_DOT": 0.00015279,
    "MEAN_MOTION_DDOT": 0
   }
  },
  {
   "norad": 67371,
   "name": "UMBRA-12",
   "intl": "2026-004J",
   "group": "sar",
   "gcat": {
    "class": "B",
    "category": "IMG-R",
    "owner": "UMBRA",
    "state": "US"
   },
   "omm": {
    "OBJECT_NAME": "UMBRA-12",
    "OBJECT_ID": "2026-004J",
    "EPOCH": "2026-07-06T17:23:18.643776",
    "MEAN_MOTION": 14.89486235,
    "ECCENTRICITY": 0.0007775,
    "INCLINATION": 97.802,
    "RA_OF_ASC_NODE": 186.2249,
    "ARG_OF_PERICENTER": 74.9094,
    "MEAN_ANOMALY": 285.2983,
    "EPHEMERIS_TYPE": 0,
    "CLASSIFICATION_TYPE": "U",
    "NORAD_CAT_ID": 67371,
    "ELEMENT_SET_NO": 999,
    "REV_AT_EPOCH": 2621,
    "BSTAR": 0.00038434,
    "MEAN_MOTION_DOT": 0.00003606,
    "MEAN_MOTION_DDOT": 0
   }
  },
  {
   "norad": 39160,
   "name": "VNREDSAT 1",
   "intl": "2013-021B",
   "group": "resource",
   "gcat": {
    "class": "C",
    "category": "IMG",
    "owner": "VAST",
    "state": "VN"
   },
   "omm": {
    "OBJECT_NAME": "VNREDSAT 1",
    "OBJECT_ID": "2013-021B",
    "EPOCH": "2026-07-06T19:54:39.763296",
    "MEAN_MOTION": 14.64878208,
    "ECCENTRICITY": 0.0001669,
    "INCLINATION": 97.9064,
    "RA_OF_ASC_NODE": 240.4914,
    "ARG_OF_PERICENTER": 82.1095,
    "MEAN_ANOMALY": 278.0298,
    "EPHEMERIS_TYPE": 0,
    "CLASSIFICATION_TYPE": "U",
    "NORAD_CAT_ID": 39160,
    "ELEMENT_SET_NO": 999,
    "REV_AT_EPOCH": 70316,
    "BSTAR": 0.000090468,
    "MEAN_MOTION_DOT": 0.00000438,
    "MEAN_MOTION_DDOT": 0
   }
  },
  {
   "norad": 32060,
   "name": "WORLDVIEW-1 (WV-1)",
   "intl": "2007-041A",
   "group": "resource",
   "gcat": {
    "class": "B",
    "category": "IMG",
    "owner": "DGLO",
    "state": "US"
   },
   "omm": {
    "OBJECT_NAME": "WORLDVIEW-1 (WV-1)",
    "OBJECT_ID": "2007-041A",
    "EPOCH": "2026-07-06T20:29:14.502048",
    "MEAN_MOTION": 15.24494992,
    "ECCENTRICITY": 0.0000954,
    "INCLINATION": 97.3892,
    "RA_OF_ASC_NODE": 307.3195,
    "ARG_OF_PERICENTER": 263.9722,
    "MEAN_ANOMALY": 96.1407,
    "EPHEMERIS_TYPE": 0,
    "CLASSIFICATION_TYPE": "U",
    "NORAD_CAT_ID": 32060,
    "ELEMENT_SET_NO": 999,
    "REV_AT_EPOCH": 4587,
    "BSTAR": 0.00019173,
    "MEAN_MOTION_DOT": 0.00004641,
    "MEAN_MOTION_DDOT": 0
   }
  },
  {
   "norad": 35946,
   "name": "WORLDVIEW-2 (WV-2)",
   "intl": "2009-055A",
   "group": "resource",
   "gcat": {
    "class": "B",
    "category": "IMG",
    "owner": "DGLO",
    "state": "US"
   },
   "omm": {
    "OBJECT_NAME": "WORLDVIEW-2 (WV-2)",
    "OBJECT_ID": "2009-055A",
    "EPOCH": "2026-07-06T20:33:31.740768",
    "MEAN_MOTION": 14.37905345,
    "ECCENTRICITY": 0.0004928,
    "INCLINATION": 98.4759,
    "RA_OF_ASC_NODE": 261.038,
    "ARG_OF_PERICENTER": 150.4468,
    "MEAN_ANOMALY": 209.6998,
    "EPHEMERIS_TYPE": 0,
    "CLASSIFICATION_TYPE": "U",
    "NORAD_CAT_ID": 35946,
    "ELEMENT_SET_NO": 999,
    "REV_AT_EPOCH": 87847,
    "BSTAR": 0.000049238,
    "MEAN_MOTION_DOT": 0.00000105,
    "MEAN_MOTION_DDOT": 0
   }
  },
  {
   "norad": 40115,
   "name": "WORLDVIEW-3 (WV-3)",
   "intl": "2014-048A",
   "group": "resource",
   "gcat": {
    "class": "B",
    "category": "IMG",
    "owner": "DGLO",
    "state": "US"
   },
   "omm": {
    "OBJECT_NAME": "WORLDVIEW-3 (WV-3)",
    "OBJECT_ID": "2014-048A",
    "EPOCH": "2026-07-06T20:12:47.482272",
    "MEAN_MOTION": 14.85054952,
    "ECCENTRICITY": 0.0000631,
    "INCLINATION": 97.856,
    "RA_OF_ASC_NODE": 262.4034,
    "ARG_OF_PERICENTER": 167.1098,
    "MEAN_ANOMALY": 193.0133,
    "EPHEMERIS_TYPE": 0,
    "CLASSIFICATION_TYPE": "U",
    "NORAD_CAT_ID": 40115,
    "ELEMENT_SET_NO": 999,
    "REV_AT_EPOCH": 64482,
    "BSTAR": 0.000095998,
    "MEAN_MOTION_DOT": 0.00000766,
    "MEAN_MOTION_DDOT": 0
   }
  },
  {
   "norad": 36834,
   "name": "YAOGAN-10",
   "intl": "2010-038A",
   "group": "resource",
   "gcat": {
    "class": null,
    "category": null,
    "owner": null,
    "state": null
   },
   "omm": {
    "OBJECT_NAME": "YAOGAN-10",
    "OBJECT_ID": "2010-038A",
    "EPOCH": "2026-07-06T21:32:58.079616",
    "MEAN_MOTION": 14.85411784,
    "ECCENTRICITY": 0.0001614,
    "INCLINATION": 97.8969,
    "RA_OF_ASC_NODE": 211.1446,
    "ARG_OF_PERICENTER": 84.5037,
    "MEAN_ANOMALY": 36.1055,
    "EPHEMERIS_TYPE": 0,
    "CLASSIFICATION_TYPE": "U",
    "NORAD_CAT_ID": 36834,
    "ELEMENT_SET_NO": 999,
    "REV_AT_EPOCH": 86013,
    "BSTAR": 0.00020947,
    "MEAN_MOTION_DOT": 0.0000175,
    "MEAN_MOTION_DDOT": 0
   }
  },
  {
   "norad": 40143,
   "name": "YAOGAN-21",
   "intl": "2014-053A",
   "group": "resource",
   "gcat": {
    "class": "D",
    "category": "IMG",
    "owner": "ZZB",
    "state": "CN"
   },
   "omm": {
    "OBJECT_NAME": "YAOGAN-21",
    "OBJECT_ID": "2014-053A",
    "EPOCH": "2026-07-06T21:26:33.739584",
    "MEAN_MOTION": 15.26680073,
    "ECCENTRICITY": 0.0008775,
    "INCLINATION": 97.1465,
    "RA_OF_ASC_NODE": 227.2847,
    "ARG_OF_PERICENTER": 35.7468,
    "MEAN_ANOMALY": 324.4357,
    "EPHEMERIS_TYPE": 0,
    "CLASSIFICATION_TYPE": "U",
    "NORAD_CAT_ID": 40143,
    "ELEMENT_SET_NO": 999,
    "REV_AT_EPOCH": 65796,
    "BSTAR": 0.0001621,
    "MEAN_MOTION_DOT": 0.00004188,
    "MEAN_MOTION_DDOT": 0
   }
  }
 ]
}
